{
  "type": "FeatureCollection",
  "features": [
    {
      "type": "Feature",
      "properties": {
        "norad_id": 54259,
        "name": "EUTELSAT 10B",
        "group": "eutelsat",
        "lat": 0.05277952290514673,
        "lon": 173.00075870687223,
        "alt_km": 35783.38495369665,
        "timestamp": "2025-12-19T04:59:47.972124+00:00",
        "meta_object_name": "EUTELSAT 10B",
        "meta_object_id": "2022-157A",
        "meta_epoch": "2025-12-18T21:05:38.638752",
        "meta_mean_motion": 1.00274831,
        "meta_eccentricity": 7.795e-05,
        "meta_inclination": 0.0625,
        "meta_ra_of_asc_node": 98.3066,
        "meta_arg_of_pericenter": 18.3202,
        "meta_mean_anomaly": 297.5103,
        "meta_ephemeris_type": 0,
        "meta_classification_type": "U",
        "meta_norad_cat_id": 54259,
        "meta_element_set_no": 999,
        "meta_rev_at_epoch": 1121,
        "meta_bstar": 0,
        "meta_mean_motion_dot": 9.4e-07,
        "meta_mean_motion_ddot": 0,
        "tle_line1": "1 54259U 22157A   25352.87891943  .00000094  00000+0  00000+0 0  9999",
        "tle_line2": "2 54259   0.0625  98.3066 0000779  18.3202 297.5103  1.00274831 11219"
      },
      "geometry": {
        "type": "Point",
        "coordinates": [
          173.00075870687223,
          0.05277952290514673
        ]
      }
    },
    {
      "type": "Feature",
      "properties": {
        "norad_id": 59346,
        "name": "EUTELSAT 36D",
        "group": "eutelsat",
        "lat": -0.010604546936571554,
        "lon": -161.16591752476748,
        "alt_km": 35788.034615632656,
        "timestamp": "2025-12-19T04:59:47.972136+00:00",
        "meta_object_name": "EUTELSAT 36D",
        "meta_object_id": "2024-059A",
        "meta_epoch": "2025-12-18T20:41:38.800896",
        "meta_mean_motion": 1.00271288,
        "meta_eccentricity": 4.444e-05,
        "meta_inclination": 0.025,
        "meta_ra_of_asc_node": 15.8744,
        "meta_arg_of_pericenter": 357.4402,
        "meta_mean_anomaly": 60.6523,
        "meta_ephemeris_type": 0,
        "meta_classification_type": "U",
        "meta_norad_cat_id": 59346,
        "meta_element_set_no": 999,
        "meta_rev_at_epoch": 633,
        "meta_bstar": 0,
        "meta_mean_motion_dot": 0,
        "meta_mean_motion_ddot": 0,
        "tle_line1": "1 59346U 24059A   25352.86225464  .00000000  00000+0  00000+0 0  9999",
        "tle_line2": "2 59346   0.0250  15.8744 0000444 357.4402  60.6523  1.00271288  6335"
      },
      "geometry": {
        "type": "Point",
        "coordinates": [
          -161.16591752476748,
          -0.010604546936571554
        ]
      }
    }
  ]
}